{"type": "FeatureCollection", "features": [ {"type": "Feature", "properties": {"norad_id": 40938, "name": "BEIDOU-3S IGSO-2S (C56)", "group": "gnss", "lat": 49.16128223483875, "lon": -18.537841168426986, "alt_km": 35845.580876095875, "timestamp": "2025-12-17T10:52:54.595831+00:00", "meta": {"OBJECT_NAME": "BEIDOU-3S IGSO-2S (C56)", "OBJECT_ID": "2015-053A", "EPOCH": "2025-12-16T17:14:16.267776", "MEAN_MOTION": 1.00269476, "ECCENTRICITY": 0.00605277, "INCLINATION": 49.5044, "RA_OF_ASC_NODE": 260.9581, "ARG_OF_PERICENTER": 188.7289, "MEAN_ANOMALY": 350.4326, "EPHEMERIS_TYPE": 0, "CLASSIFICATION_TYPE": "U", "NORAD_CAT_ID": 40938, "ELEMENT_SET_NO": 999, "REV_AT_EPOCH": 3752, "BSTAR": 0, "MEAN_MOTION_DOT": -1.34e-06, "MEAN_MOTION_DDOT": 0}, "tle": {"line1": "1 40938U 15053A   25350.71824384 -.00000134  00000+0  00000+0 0  9997", "line2": "2 40938  49.5044 260.9581 0060527 188.7289 350.4326  1.00269476 37521"}}, "geometry": {"type": "Point", "coordinates": [-18.537841168426986, 49.16128223483875]}}, {"type": "Feature", "properties": {"norad_id": 41019, "name": "GPS BIIF-11 (PRN 10)", "group": "gnss", "lat": 51.49874335135833, "lon": 162.61798101392415, "alt_km": 20317.74959446027, "timestamp": "2025-12-17T10:52:54.595843+00:00", "meta": {"OBJECT_NAME": "GPS BIIF-11 (PRN 10)", "OBJECT_ID": "2015-062A", "EPOCH": "2025-12-16T07:11:55.851072", "MEAN_MOTION": 2.00567222, "ECCENTRICITY": 0.01109218, "INCLINATION": 56.8347, "RA_OF_ASC_NODE": 37.8646, "ARG_OF_PERICENTER": 230.0329, "MEAN_ANOMALY": 129.0434, "EPHEMERIS_TYPE": 0, "CLASSIFICATION_TYPE": "U", "NORAD_CAT_ID": 41019, "ELEMENT_SET_NO": 999, "REV_AT_EPOCH": 7416, "BSTAR": 0, "MEAN_MOTION_DOT": -8.3e-07, "MEAN_MOTION_DDOT": 0}, "tle": {"line1": "1 41019U 15062A   25350.29995198 -.00000083  00000+0  00000+0 0  9996", "line2": "2 41019  56.8347  37.8646 0110921 230.0329 129.0434  2.00567222 74164"}}, "geometry": {"type": "Point", "coordinates": [162.61798101392415, 51.49874335135833]}}, {"type": "Feature", "properties": {"norad_id": 41028, "name": "GSAT-15 (GAGAN/PRN 139)", "group": "gnss", "lat": 0.03217302029316933, "lon": -16.93411085550897, "alt_km": 35790.69115775603, "timestamp": "2025-12-17T10:52:54.595858+00:00", "meta": {"OBJECT_NAME": "GSAT-15 (GAGAN/PRN 139)", "OBJECT_ID": "2015-065A", "EPOCH": "2025-12-16T17:13:31.339776", "MEAN_MOTION": 1.00270887, "ECCENTRICITY": 0.00026538, "INCLINATION": 0.0372, "RA_OF_ASC_NODE": 268.5656, "ARG_OF_PERICENTER": 321.7266, "MEAN_ANOMALY": 207.1882, "EPHEMERIS_TYPE": 0, "CLASSIFICATION_TYPE": "U", "NORAD_CAT_ID": 41028, "ELEMENT_SET_NO": 999, "REV_AT_EPOCH": 3696, "BSTAR": 0, "MEAN_MOTION_DOT": -2.34e-06, "MEAN_MOTION_DDOT": 0}, "tle": {"line1": "1 41028U 15065A   25350.71772384 -.00000234  00000+0  00000+0 0  9994", "line2": "2 41028   0.0372 268.5656 0002653 321.7266 207.1882  1.00270887 36965"}}, "geometry": {"type": "Point", "coordinates": [-16.93411085550897, 0.03217302029316933]}}, {"type": "Feature", "properties": {"norad_id": 41174, "name": "GSAT0209 (GALILEO 12)", "group": "gnss", "lat": 18.898681546622928, "lon": -87.25168319897719, "alt_km": 23226.93430095311, "timestamp": "2025-12-17T10:52:54.595870+00:00", "meta": {"OBJECT_NAME": "GSAT0209 (GALILEO 12)", "OBJECT_ID": "2015-079A", "EPOCH": "2025-12-13T16:16:46.046208", "MEAN_MOTION": 1.70474514, "ECCENTRICITY": 0.00024314, "INCLINATION": 55.7133, "RA_OF_ASC_NODE": 106.3552, "ARG_OF_PERICENTER": 349.5598, "MEAN_ANOMALY": 10.4024, "EPHEMERIS_TYPE": 0, "CLASSIFICATION_TYPE": "U", "NORAD_CAT_ID": 41174, "ELEMENT_SET_NO": 999, "REV_AT_EPOCH": 6161, "BSTAR": 0, "MEAN_MOTION_DOT": -1e-08, "MEAN_MOTION_DDOT": 0}, "tle": {"line1": "1 41174U 15079A   25347.67831072 -.00000001  00000+0  00000+0 0  9994", "line2": "2 41174  55.7133 106.3552 0002431 349.5598  10.4024  1.70474514 61616"}}, "geometry": {"type": "Point", "coordinates": [-87.25168319897719, 18.898681546622928]}}, {"type": "Feature", "properties": {"norad_id": 41175, "name": "GSAT0208 (GALILEO 11)", "group": "gnss", "lat": 17.843289708561343, "lon": 118.90890085315024, "alt_km": 23214.956149310692, "timestamp": "2025-12-17T10:52:54.595881+00:00", "meta": {"OBJECT_NAME": "GSAT0208 (GALILEO 11)", "OBJECT_ID": "2015-079B", "EPOCH": "2025-12-12T17:24:26.771040", "MEAN_MOTION": 1.70474307, "ECCENTRICITY": 0.00018806, "INCLINATION": 55.7111, "RA_OF_ASC_NODE": 106.3784, "ARG_OF_PERICENTER": 358.3144, "MEAN_ANOMALY": 1.6545, "EPHEMERIS_TYPE": 0, "CLASSIFICATION_TYPE": "U", "NORAD_CAT_ID": 41175, "ELEMENT_SET_NO": 999, "REV_AT_EPOCH": 6201, "BSTAR": 0, "MEAN_MOTION_DOT": 4e-08, "MEAN_MOTION_DDOT": 0}, "tle": {"line1": "1 41175U 15079B   25346.72530985  .00000004  00000+0  00000+0 0  9991", "line2": "2 41175  55.7111 106.3784 0001880 358.3144   1.6545  1.70474307 62017"}}, "geometry": {"type": "Point", "coordinates": [118.90890085315024, 17.843289708561343]}}, {"type": "Feature", "properties": {"norad_id": 41241, "name": "IRNSS-1E", "group": "gnss", "lat": -28.277682518687296, "lon": 6.016190320854251, "alt_km": 35822.44424458314, "timestamp": "2025-12-17T10:52:54.595893+00:00", "meta": {"OBJECT_NAME": "IRNSS-1E", "OBJECT_ID": "2016-003A", "EPOCH": "2025-12-16T15:11:45.803328", "MEAN_MOTION": 1.00272235, "ECCENTRICITY": 0.00217171, "INCLINATION": 32.8339, "RA_OF_ASC_NODE": 62.3964, "ARG_OF_PERICENTER": 188.1276, "MEAN_ANOMALY": 174.7175, "EPHEMERIS_TYPE": 0, "CLASSIFICATION_TYPE": "U", "NORAD_CAT_ID": 41241, "ELEMENT_SET_NO": 999, "REV_AT_EPOCH": 3625, "BSTAR": 0, "MEAN_MOTION_DOT": -3.06e-06, "MEAN_MOTION_DDOT": 0}, "tle": {"line1": "1 41241U 16003A   25350.63316902 -.00000306  00000+0  00000+0 0  9995", "line2": "2 41241  32.8339  62.3964 0021717 188.1276 174.7175  1.00272235 36253"}}, "geometry": {"type": "Point", "coordinates": [6.016190320854251, -28.277682518687296]}}, {"type": "Feature", "properties": {"norad_id": 41328, "name": "GPS BIIF-12 (PRN 32)", "group": "gnss", "lat": 40.77185465806499, "lon": 133.12826840907834, "alt_km": 20417.71932103035, "timestamp": "2025-12-17T10:52:54.595905+00:00", "meta": {"OBJECT_NAME": "GPS BIIF-12 (PRN 32)", "OBJECT_ID": "2016-007A", "EPOCH": "2025-12-14T21:16:57.823104", "MEAN_MOTION": 2.00560623, "ECCENTRICITY": 0.00922757, "INCLINATION": 55.4074, "RA_OF_ASC_NODE": 96.7717, "ARG_OF_PERICENTER": 243.6198, "MEAN_ANOMALY": 115.4149, "EPHEMERIS_TYPE": 0, "CLASSIFICATION_TYPE": "U", "NORAD_CAT_ID": 41328, "ELEMENT_SET_NO": 999, "REV_AT_EPOCH": 7214, "BSTAR": 0, "MEAN_MOTION_DOT": -3.3e-07, "MEAN_MOTION_DDOT": 0}, "tle": {"line1": "1 41328U 16007A   25348.88678036 -.00000033  00000+0  00000+0 0  9995", "line2": "2 41328  55.4074  96.7717 0092275 243.6198 115.4149  2.00560623 72143"}}, "geometry": {"type": "Point", "coordinates": [133.12826840907834, 40.77185465806499]}}, {"type": "Feature", "properties": {"norad_id": 41330, "name": "COSMOS 2514 (751)", "group": "gnss", "lat": -4.528415028977793, "lon": 141.33238658798894, "alt_km": 19106.10837604052, "timestamp": "2025-12-17T10:52:54.595917+00:00", "meta": {"OBJECT_NAME": "COSMOS 2514 (751)", "OBJECT_ID": "2016-008A", "EPOCH": "2025-12-16T06:34:00.333408", "MEAN_MOTION": 2.13102686, "ECCENTRICITY": 0.0011947, "INCLINATION": 65.1318, "RA_OF_ASC_NODE": 319.2829, "ARG_OF_PERICENTER": 220.1378, "MEAN_ANOMALY": 139.7678, "EPHEMERIS_TYPE": 0, "CLASSIFICATION_TYPE": "U", "NORAD_CAT_ID": 41330, "ELEMENT_SET_NO": 999, "REV_AT_EPOCH": 7672, "BSTAR": 0, "MEAN_MOTION_DOT": -6.9e-07, "MEAN_MOTION_DDOT": 0}, "tle": {"line1": "1 41330U 16008A   25350.27361497 -.00000069  00000+0  00000+0 0  9994", "line2": "2 41330  65.1318 319.2829 0011947 220.1378 139.7678  2.13102686 76728"}}, "geometry": {"type": "Point", "coordinates": [141.33238658798894, -4.528415028977793]}}, {"type": "Feature", "properties": {"norad_id": 41384, "name": "IRNSS-1F", "group": "gnss", "lat": -0.09138759476709815, "lon": -78.05597645048209, "alt_km": 35689.54453085284, "timestamp": "2025-12-17T10:52:54.595929+00:00", "meta": {"OBJECT_NAME": "IRNSS-1F", "OBJECT_ID": "2016-015A", "EPOCH": "2025-12-16T01:31:33.976416", "MEAN_MOTION": 1.00274269, "ECCENTRICITY": 0.00226076, "INCLINATION": 4.8892, "RA_OF_ASC_NODE": 101.217, "ARG_OF_PERICENTER": 181.0816, "MEAN_ANOMALY": 217.9315, "EPHEMERIS_TYPE": 0, "CLASSIFICATION_TYPE": "U", "NORAD_CAT_ID": 41384, "ELEMENT_SET_NO": 999, "REV_AT_EPOCH": 3583, "BSTAR": 0, "MEAN_MOTION_DOT": 1.79e-06, "MEAN_MOTION_DDOT": 0}, "tle": {"line1": "1 41384U 16015A   25350.06358769  .00000179  00000+0  00000+0 0  9997", "line2": "2 41384   4.8892 101.2170 0022607 181.0816 217.9315  1.00274269 35835"}}, "geometry": {"type": "Point", "coordinates": [-78.05597645048209, -0.09138759476709815]}}, {"type": "Feature", "properties": {"norad_id": 41434, "name": "BEIDOU-2 IGSO-6 (C13)", "group": "gnss", "lat": -46.205178857926434, "lon": 2.8418969745611116, "alt_km": 35711.588848377054, "timestamp": "2025-12-17T10:52:54.595941+00:00", "meta": {"OBJECT_NAME": "BEIDOU-2 IGSO-6 (C13)", "OBJECT_ID": "2016-021A", "EPOCH": "2025-12-11T15:29:12.615360", "MEAN_MOTION": 1.00293077, "ECCENTRICITY": 0.00608616, "INCLINATION": 59.9644, "RA_OF_ASC_NODE": 39.9082, "ARG_OF_PERICENTER": 229.9753, "MEAN_ANOMALY": 135.9177, "EPHEMERIS_TYPE": 0, "CLASSIFICATION_TYPE": "U", "NORAD_CAT_ID": 41434, "ELEMENT_SET_NO": 999, "REV_AT_EPOCH": 3560, "BSTAR": 0, "MEAN_MOTION_DOT": -1.62e-06, "MEAN_MOTION_DDOT": 0}, "tle": {"line1": "1 41434U 16021A   25345.64528490 -.00000162  00000+0  00000+0 0  9991", "line2": "2 41434  59.9644  39.9082 0060861 229.9753 135.9177  1.00293077 35600"}}, "geometry": {"type": "Point", "coordinates": [2.8418969745611116, -46.205178857926434]}}]}